host,ip,port,protocol,base_protocol,title,server,domain,country,region,city,header,os,banner,cert,icp,jarm,link,country_name
221.224.203.99:90,221.224.203.99,90,http,tcp,DSS,Apache-Coyote/1.1,,CN,Jiangsu,Danyang,"HTTP/1.1 200 OK
Connection: close
Content-Length: 7525
Cache-Control: no-cache
Content-Language: zh-CN
Content-Type: text/html;charset=UTF-8
Date: Wed, 05 Jun 2024 05:21:26 GMT
Expires: Thu, 01 Jan 1970 00:00:00 GMT
Pragma: no-cache
Server: Apache-Coyote/1.1
Set-Cookie: JSESSIONID=0CC9DE4BA0FECFF566021DC6B5DFE848; Path=/portal; HttpOnly
",,,,,,http://221.224.203.99:90,中国
152.169.57.30:8009,152.169.57.30,8009,http,tcp,,Apache-Coyote/1.1,,AR,Cordoba,Villa Maria,"HTTP/1.1 200 OK
Connection: close
Transfer-Encoding: chunked
Cache-Control: no-cache
Content-Type: text/html;charset=UTF-8
Date: Wed, 05 Jun 2024 04:13:58 GMT
Expires: Thu, 01 Jan 1970 00:00:00 GMT
Pragma: no-cache
Server: Apache-Coyote/1.1
Set-Cookie: JSESSIONID=77528F7CE3478BDE3D99CAFBE3422059; Path=/portal/; HttpOnly
",,,,,,http://152.169.57.30:8009,阿根廷
120.194.194.188:9999,120.194.194.188,9999,http,tcp,DSS,Apache-Coyote/1.1,,CN,Henan,Puyang,"HTTP/1.1 200 OK
Connection: close
Content-Length: 7359
Cache-Control: no-cache
Content-Type: text/html;charset=UTF-8
Date: Wed, 05 Jun 2024 05:43:53 GMT
Expires: Thu, 01 Jan 1970 00:00:00 GMT
Pragma: no-cache
Server: Apache-Coyote/1.1
Set-Cookie: JSESSIONID=B4C6B3F22F794810A30ECD15C73493DF; Path=/portal; HttpOnly
",,,,,,http://120.194.194.188:9999,中国
117.158.16.22:9999,117.158.16.22,9999,http,tcp,DSS,Apache-Coyote/1.1,,CN,Henan,Zhengzhou,"HTTP/1.1 200 OK
Connection: close
Content-Length: 7451
Cache-Control: no-cache
Content-Type: text/html;charset=UTF-8
Date: Wed, 05 Jun 2024 01:28:57 GMT
Expires: Thu, 01 Jan 1970 00:00:00 GMT
Pragma: no-cache
Server: Apache-Coyote/1.1
Set-Cookie: JSESSIONID=2E012CB4231379381C7EE3756B73F30E; Path=/portal; HttpOnly
",,,,,,http://117.158.16.22:9999,中国
60.165.202.92:8000,60.165.202.92,8000,http,tcp,DSS,Apache-Coyote/1.1,,CN,Gansu,Longnan,"HTTP/1.1 200 OK
Connection: close
Content-Length: 7362
Cache-Control: no-cache
Content-Type: text/html;charset=UTF-8
Date: Wed, 05 Jun 2024 02:22:19 GMT
Expires: Thu, 01 Jan 1970 00:00:00 GMT
Pragma: no-cache
Server: Apache-Coyote/1.1
Set-Cookie: JSESSIONID=E4916200C1A94C151DD33E54120E0949; Path=/portal/; HttpOnly
",,,,,,http://60.165.202.92:8000,中国
116.7.252.170:9999,116.7.252.170,9999,http,tcp,DSS,Apache-Coyote/1.1,,CN,Guangdong,Shenzhen,"HTTP/1.1 200 OK
Connection: close
Content-Length: 7362
Cache-Control: no-cache
Content-Type: text/html;charset=UTF-8
Date: Wed, 05 Jun 2024 00:32:52 GMT
Expires: Thu, 01 Jan 1970 00:00:00 GMT
Pragma: no-cache
Server: Apache-Coyote/1.1
Set-Cookie: JSESSIONID=A86AAADD632400391D3498FDFCC02EAA; Path=/portal/; HttpOnly
",,,,,,http://116.7.252.170:9999,中国
36.136.7.34:8000,36.136.7.34,8000,http,tcp,DSS,Apache-Coyote/1.1,,CN,Sichuan,Chengdu,"HTTP/1.1 200 OK
Connection: close
Content-Length: 7525
Cache-Control: no-cache
Content-Language: zh-CN
Content-Type: text/html;charset=UTF-8
Date: Wed, 05 Jun 2024 00:27:21 GMT
Expires: Thu, 01 Jan 1970 00:00:00 GMT
Pragma: no-cache
Server: Apache-Coyote/1.1
Set-Cookie: JSESSIONID=133AC25E31A1ED4056902DD478221ECA; Path=/portal; HttpOnly
",,,,,,http://36.136.7.34:8000,中国
122.225.65.22:18080,122.225.65.22,18080,http,tcp,DSS,Apache-Coyote/1.1,,CN,Zhejiang,Jiaxing,"HTTP/1.1 200 OK
Connection: close
Content-Length: 7359
Cache-Control: no-cache
Content-Type: text/html;charset=UTF-8
Date: Wed, 05 Jun 2024 00:14:18 GMT
Expires: Thu, 01 Jan 1970 00:00:00 GMT
Pragma: no-cache
Server: Apache-Coyote/1.1
Set-Cookie: JSESSIONID=36F1F7B7029486856AF0948BC3CB9343; Path=/portal/; HttpOnly
",,,,,,http://122.225.65.22:18080,中国
211.92.143.238:18080,211.92.143.238,18080,http,tcp,,nginx,,CN,Guizhou,Guiyang,"HTTP/1.1 200 
Connection: close
Content-Length: 148
Content-Type: text/html;charset=UTF-8
Date: Tue, 04 Jun 2024 23:22:22 GMT
Server: nginx
Set-Cookie: JSESSIONID=63784E8442009BA5711E48288C1DEE1E; Path=/admin; HttpOnly
",,,,,,http://211.92.143.238:18080,中国
61.189.188.83:8000,61.189.188.83,8000,http,tcp,DSS,Apache-Coyote/1.1,,CN,Guizhou,Zunyi,"HTTP/1.1 200 OK
Connection: close
Content-Length: 7359
Cache-Control: no-cache
Content-Type: text/html;charset=UTF-8
Date: Tue, 04 Jun 2024 23:49:03 GMT
Expires: Thu, 01 Jan 1970 00:00:00 GMT
Pragma: no-cache
Server: Apache-Coyote/1.1
Set-Cookie: JSESSIONID=B1E204B162236820C2DC3037A94179C8; Path=/portal/; HttpOnly
",,,,,,http://61.189.188.83:8000,中国
218.77.107.34:8000,218.77.107.34,8000,http,tcp,DSS,Apache-Coyote/1.1,,CN,Hunan,Changsha,"HTTP/1.1 200 OK
Connection: close
Content-Length: 7359
Cache-Control: no-cache
Content-Type: text/html;charset=UTF-8
Date: Tue, 04 Jun 2024 21:53:25 GMT
Expires: Thu, 01 Jan 1970 00:00:00 GMT
Pragma: no-cache
Server: Apache-Coyote/1.1
Set-Cookie: JSESSIONID=D9C93CD92D0711A440DFC2B51FF0EFD5; Path=/portal/; HttpOnly
",,,,,,http://218.77.107.34:8000,中国
111.39.155.130:18080,111.39.155.130,18080,http,tcp,DSS,Apache-Coyote/1.1,,CN,Anhui,Lu'an,"HTTP/1.1 200 OK
Connection: close
Content-Length: 7359
Cache-Control: no-cache
Content-Type: text/html;charset=UTF-8
Date: Tue, 04 Jun 2024 23:16:53 GMT
Expires: Thu, 01 Jan 1970 00:00:00 GMT
Pragma: no-cache
Server: Apache-Coyote/1.1
Set-Cookie: JSESSIONID=FBBF09DD58159ADBF7DB2DD2F2413C1B; Path=/portal; HttpOnly
",,,,,,http://111.39.155.130:18080,中国
221.209.110.30:10001,221.209.110.30,10001,http,tcp,DSS,Apache-Coyote/1.1,,CN,Heilongjiang,Mudanjiang,"HTTP/1.1 200 OK
Connection: close
Content-Length: 7451
Cache-Control: no-cache
Content-Type: text/html;charset=UTF-8
Date: Tue, 04 Jun 2024 21:23:46 GMT
Expires: Thu, 01 Jan 1970 00:00:00 GMT
Pragma: no-cache
Server: Apache-Coyote/1.1
Set-Cookie: JSESSIONID=74F69619512131B9232D213CEAA82EDA; Path=/portal; HttpOnly
",,,,,,http://221.209.110.30:10001,中国
188.152.192.136,188.152.192.136,80,http,tcp,,Apache-Coyote/1.1,,IT,Piemonte,Ivrea,"HTTP/1.1 200 OK
Connection: close
Transfer-Encoding: chunked
Cache-Control: no-cache
Content-Type: text/html;charset=UTF-8
Date: Tue, 04 Jun 2024 20:25:08 GMT
Expires: Thu, 01 Jan 1970 00:00:00 GMT
Pragma: no-cache
Server: Apache-Coyote/1.1
Set-Cookie: JSESSIONID=21EC7BEA2B5F23AC57124FC792D0D3D9; Path=/portal/; HttpOnly
",,,,,,http://188.152.192.136,意大利
84.51.31.19:8000,84.51.31.19,8000,http,tcp,,Apache-Coyote/1.1,,TR,Istanbul,Istanbul,"HTTP/1.1 200 OK
Connection: close
Transfer-Encoding: chunked
Cache-Control: no-cache
Content-Type: text/html;charset=UTF-8
Date: Tue, 04 Jun 2024 20:13:19 GMT
Expires: Thu, 01 Jan 1970 00:00:00 GMT
Pragma: no-cache
Server: Apache-Coyote/1.1
Set-Cookie: JSESSIONID=EDE7BB2E9D85B70A99D391FDC2396724; Path=/portal/; HttpOnly
",,,,,,http://84.51.31.19:8000,土耳其
124.114.202.122:4040,124.114.202.122,4040,http,tcp,DSS,Apache-Coyote/1.1,,CN,Shanxi,Taiyuan,"HTTP/1.1 200 OK
Connection: close
Content-Length: 7359
Cache-Control: no-cache
Content-Type: text/html;charset=UTF-8
Date: Tue, 04 Jun 2024 20:13:34 GMT
Expires: Thu, 01 Jan 1970 00:00:00 GMT
Pragma: no-cache
Server: Apache-Coyote/1.1
Set-Cookie: JSESSIONID=7AE44AFEDA3C70660E4B13EF0C29DBF3; Path=/portal; HttpOnly
",,,,,,http://124.114.202.122:4040,中国
222.179.229.214,222.179.229.214,80,http,tcp,,nginx,,CN,Chongqing,Chongqing,"HTTP/1.1 200 
Connection: close
Content-Length: 148
Content-Type: text/html;charset=UTF-8
Date: Tue, 04 Jun 2024 19:49:15 GMT
Server: nginx
Set-Cookie: JSESSIONID=C0EF7726F1FB9702D4039AA0036EDBFB; Path=/admin; HttpOnly
",,,,,,http://222.179.229.214,中国
app.fidelizou.me,13.59.226.102,80,http,tcp,Fidelizou.me,Caddy,fidelizou.me,US,Ohio,Columbus,"HTTP/1.1 200 OK
Connection: close
Content-Length: 106251
Accept-Ranges: bytes
Content-Type: text/html; charset=utf-8
Date: Tue, 04 Jun 2024 19:20:12 GMT
Etag: ""s57ftf29zf""
Last-Modified: Tue, 05 Dec 2023 17:41:39 GMT
Server: Caddy
",,,,,,http://app.fidelizou.me,美国
222.240.197.187,222.240.197.187,80,http,tcp,DSS,Apache-Coyote/1.1,,CN,Hunan,Changsha,"HTTP/1.1 200 OK
Connection: close
Content-Length: 7525
Cache-Control: no-cache
Content-Language: zh-CN
Content-Type: text/html;charset=UTF-8
Date: Tue, 04 Jun 2024 19:04:27 GMT
Expires: Thu, 01 Jan 1970 00:00:00 GMT
Pragma: no-cache
Server: Apache-Coyote/1.1
Set-Cookie: JSESSIONID=3E366D2F07DC1F27C3C1863022A50625; Path=/portal; HttpOnly
",,,,,,http://222.240.197.187,中国
1.6.136.113,1.6.136.113,80,http,tcp,,Apache-Coyote/1.1,,IN,Delhi,Delhi,"HTTP/1.1 200 OK
Connection: close
Transfer-Encoding: chunked
Cache-Control: no-cache
Content-Type: text/html;charset=UTF-8
Date: Tue, 04 Jun 2024 18:28:15 GMT
Expires: Thu, 01 Jan 1970 00:00:00 GMT
Pragma: no-cache
Server: Apache-Coyote/1.1
Set-Cookie: JSESSIONID=008697110164EA9C70509ABBA8EBED2B; Path=/portal/; HttpOnly
",,,,,,http://1.6.136.113,印度
186.103.214.204,186.103.214.204,80,http,tcp,,Apache-Coyote/1.1,,CL,Region Metropolitana de Santiago,Santiago,"HTTP/1.1 200 OK
Connection: close
Transfer-Encoding: chunked
Cache-Control: no-cache
Content-Type: text/html;charset=UTF-8
Date: Tue, 04 Jun 2024 19:26:32 GMT
Expires: Thu, 01 Jan 1970 00:00:00 GMT
Pragma: no-cache
Server: Apache-Coyote/1.1
Set-Cookie: JSESSIONID=19E1315972366BCBF2C7E9CF92486435; Path=/portal/; HttpOnly
",,,,,,http://186.103.214.204,智利
187.189.191.114,187.189.191.114,80,http,tcp,,Apache-Coyote/1.1,,MX,Jalisco,Guadalajara,"HTTP/1.1 200 OK
Connection: close
Transfer-Encoding: chunked
Cache-Control: no-cache
Content-Type: text/html;charset=UTF-8
Date: Tue, 04 Jun 2024 18:17:49 GMT
Expires: Thu, 01 Jan 1970 00:00:00 GMT
Pragma: no-cache
Server: Apache-Coyote/1.1
Set-Cookie: JSESSIONID=8BADDF6CFB858C4286B8C4B28A54D954; Path=/portal/; HttpOnly
",,,,,,http://187.189.191.114,墨西哥
https://182.150.115.18:9999,182.150.115.18,9999,https,tcp,,nginx,,CN,Sichuan,Chengdu,"HTTP/1.1 200 OK
Connection: close
Content-Length: 148
Content-Type: text/html;charset=UTF-8
Date: Sun, 21 May 2023 19:49:27 GMT
Server: nginx
Set-Cookie: JSESSIONID=80F9EFA8894CC68E99188A6B65309CA1; Path=/admin/; HttpOnly
",,,"Version:  v3
Serial Number: 14123720408055405414
Signature Algorithm: SHA256-RSA (self-signed)

Issuer:
  Country: CN
  Province: ZheJiang
  Locality: Hangzhou
  Organization: ZheJiang Dahua Technology CO.,LTD.
  Organizational Unit: ZheJiang Dahua Technology CO.,LTD.
  CommonName: wwww.dahuatech.com
  Email Address: dahuatech@dahuatech.com

Validity:
  Not Before: 2019-06-29 06:03 UTC
  Not After : 2029-06-26 06:03 UTC

Subject:
  Country: CN
  Province: ZheJiang
  Locality: Hangzhou
  Organization: ZheJiang Dahua Technology CO.,LTD.
  Organizational Unit: ZheJiang Dahua Technology CO.,LTD.
  CommonName: wwww.dahuatech.com
  Email Address: dahuatech@dahuatech.com

Subject Public Key Info:
  Public Key Algorithm: RSA
  Public Key:
    Exponent: 65537
    Public Key Modulus: (2048 bits) :
      B0:E2:C3:F3:B3:A3:42:8E:AC:6A:7D:B6:29:D8:37:B3:
      E4:89:94:C0:C9:C9:A5:7B:77:49:70:56:25:35:AB:F7:
      CD:9B:6F:BE:C6:C4:E7:FE:B2:55:E2:43:1F:C4:68:EB:
      87:0A:FE:10:4A:69:BB:63:07:0F:9A:13:28:F1:C6:FC:
      64:29:5F:96:79:FA:BD:65:DB:86:1D:37:7A:FC:19:6C:
      34:F2:E7:C8:A1:F8:4D:7E:66:C3:49:2B:77:92:78:15:
      E2:37:DD:09:59:92:0D:D2:00:22:8C:48:41:02:AD:E0:
      F6:5F:E0:D5:A4:52:DD:20:04:3F:09:35:B4:F9:AF:45:
      1C:F1:A7:46:47:F0:04:19:90:91:A4:A3:63:41:25:E0:
      85:10:C5:D9:1D:A7:B6:EA:9C:00:D6:7A:C1:9E:97:00:
      53:8C:87:42:9D:C6:CD:7E:8B:34:0F:0A:AD:C5:D4:EB:
      A7:FA:1B:A8:51:0A:0E:6A:4A:B2:B9:DE:9E:72:8B:BD:
      72:10:B1:44:3A:FA:3E:8F:3C:BF:7E:B6:89:7D:3E:69:
      A9:F1:99:25:04:96:A9:DA:85:AC:B1:54:F6:70:B4:BB:
      1E:36:D8:A6:19:A5:A0:5C:AB:7C:2E:65:C9:C7:60:CF:
      73:81:5D:CA:0B:27:2A:F2:20:79:C6:13:38:27:E4:E7

Authority Key Identifier:
  75:93:C4:D4:11:C1:35:B6:34:1A:CC:09:FE:A9:FA:F3:F5:25:50:12

Subject Key Identifier:
  75:93:C4:D4:11:C1:35:B6:34:1A:CC:09:FE:A9:FA:F3:F5:25:50:12

Basic Constraints:
  CA : true
  Path Length Constraint: UNLIMITED

Certificate Signature Algorithm: SHA256-RSA
Certificate Signature:
  41:55:9C:60:D5:9C:D0:31:3D:BE:BB:03:84:B9:9A:E1:
  09:AD:38:C5:16:5C:BD:2F:48:4C:9F:48:63:FE:8D:EE:
  32:FB:36:6D:F2:BD:12:81:C6:5E:9D:9E:60:09:D4:8D:
  9D:7E:90:07:02:B3:6A:58:8C:16:0D:B1:7E:88:CA:8F:
  ED:F3:27:43:FD:5F:99:CA:5F:99:01:7C:45:0D:7D:98:
  3D:C2:E1:E9:BC:1B:13:11:C6:BC:3F:23:C7:31:38:EE:
  21:83:8F:DA:35:89:38:7F:F2:00:FC:9D:68:AF:EF:CA:
  DE:7A:98:32:8F:2F:A0:58:7F:8A:A7:B7:69:1C:6A:5B:
  7A:49:3B:6E:A1:E2:D7:F0:56:BD:A4:D7:F6:69:15:82:
  F4:BD:F6:A3:BF:8F:77:A2:90:C4:7F:9B:18:7B:E4:E1:
  A5:2E:85:92:59:60:BB:CD:AF:11:6B:F8:83:32:32:52:
  0C:3C:AB:5A:F8:EB:A7:EB:26:03:0E:15:DD:E3:85:FE:
  F9:EE:FD:C0:A6:2D:B9:CE:7B:9F:59:F3:64:5F:FC:BA:
  D6:A8:1C:1E:09:BB:66:8B:B5:12:9A:01:FB:E4:67:4A:
  AF:C6:5E:6C:94:8D:E7:19:BA:32:43:A8:9B:6C:F5:97:
  C9:8D:06:83:62:B0:79:22:33:F9:6F:56:BC:25:BE:4B",,2ad2ad20d2ad2ad22c2ad2ad2ad2ad8e917db1de9d33002d70770504a55ef7,https://182.150.115.18:9999,中国
212.102.11.6,212.102.11.6,80,http,tcp,,Apache-Coyote/1.1,,SA,Ar Riyad,Riyadh,"HTTP/1.1 200 OK
Connection: close
Transfer-Encoding: chunked
Cache-Control: no-cache
Content-Type: text/html;charset=UTF-8
Date: Tue, 04 Jun 2024 18:40:42 GMT
Expires: Thu, 01 Jan 1970 00:00:00 GMT
Pragma: no-cache
Server: Apache-Coyote/1.1
Set-Cookie: JSESSIONID=CC933332343131C517EC518A8B3BFD7A; Path=/portal/; HttpOnly
",,,,,,http://212.102.11.6,沙特阿拉伯
218.15.225.202:8000,218.15.225.202,8000,http,tcp,DSS,Apache-Coyote/1.1,,CN,Guangdong,Zhaoqing,"HTTP/1.1 200 OK
Connection: close
Content-Length: 7525
Cache-Control: no-cache
Content-Language: zh-CN
Content-Type: text/html;charset=UTF-8
Date: Tue, 04 Jun 2024 18:08:34 GMT
Expires: Thu, 01 Jan 1970 00:00:00 GMT
Pragma: no-cache
Server: Apache-Coyote/1.1
Set-Cookie: JSESSIONID=0F5C44DFCB21ACCDC5BD8240B68D3E26; Path=/portal; HttpOnly
",,,,,,http://218.15.225.202:8000,中国
196.38.172.139,196.38.172.139,80,http,tcp,,Apache-Coyote/1.1,,ZA,Gauteng,Johannesburg,"HTTP/1.1 200 OK
Connection: close
Transfer-Encoding: chunked
Cache-Control: no-cache
Content-Type: text/html;charset=UTF-8
Date: Sun, 30 Mar 2014 08:33:24 GMT
Expires: Thu, 01 Jan 1970 00:00:00 GMT
Pragma: no-cache
Server: Apache-Coyote/1.1
Set-Cookie: JSESSIONID=EAFB7D775C9F3F0ED88F4BBA57D74A95; Path=/portal/; HttpOnly
",,,,,,http://196.38.172.139,南非
94.247.164.118,94.247.164.118,80,http,tcp,,Apache-Coyote/1.1,,FR,Ile-de-France,Clichy,"HTTP/1.1 200 OK
Connection: close
Transfer-Encoding: chunked
Cache-Control: no-cache
Content-Type: text/html;charset=UTF-8
Date: Tue, 04 Jun 2024 17:46:31 GMT
Expires: Thu, 01 Jan 1970 00:00:00 GMT
Pragma: no-cache
Server: Apache-Coyote/1.1
Set-Cookie: JSESSIONID=DC23A84A0F1BE4B5B79938E63129C414; Path=/portal/; HttpOnly
",,,,,,http://94.247.164.118,法国
200.45.202.18,200.45.202.18,80,http,tcp,,Apache-Coyote/1.1,,AR,Ciudad Autonoma de Buenos Aires,Buenos Aires,"HTTP/1.1 200 OK
Connection: close
Transfer-Encoding: chunked
Cache-Control: no-cache
Content-Type: text/html;charset=UTF-8
Date: Tue, 04 Jun 2024 17:44:20 GMT
Expires: Thu, 01 Jan 1970 00:00:00 GMT
Pragma: no-cache
Server: Apache-Coyote/1.1
Set-Cookie: JSESSIONID=9FFD7874160B6D6DE7C8A9760B1A7F5B; Path=/portal/; HttpOnly
",,,,,,http://200.45.202.18,阿根廷
85.187.218.158,85.187.218.158,80,http,tcp,,Apache-Coyote/1.1,,BG,Kardzhali,Kardzhali,"HTTP/1.1 200 OK
Connection: close
Transfer-Encoding: chunked
Cache-Control: no-cache
Content-Type: text/html;charset=UTF-8
Date: Tue, 04 Jun 2024 17:36:43 GMT
Expires: Thu, 01 Jan 1970 00:00:00 GMT
Pragma: no-cache
Server: Apache-Coyote/1.1
Set-Cookie: JSESSIONID=09C1C7A886CDE1E1B287C8F0F71243DA; Path=/portal/; HttpOnly
",,,,,,http://85.187.218.158,保加利亚
102.36.192.90,102.36.192.90,80,http,tcp,,Apache-Coyote/1.1,,ZA,Gauteng,Johannesburg,"HTTP/1.1 200 OK
Connection: close
Transfer-Encoding: chunked
Cache-Control: no-cache
Content-Type: text/html;charset=UTF-8
Date: Sun, 30 Mar 2014 07:54:31 GMT
Expires: Thu, 01 Jan 1970 00:00:00 GMT
Pragma: no-cache
Server: Apache-Coyote/1.1
Set-Cookie: JSESSIONID=DF86004BF966E6FF35259B1B5A8513C0; Path=/portal/; HttpOnly
",,,,,,http://102.36.192.90,南非
190.6.97.7,190.6.97.7,80,http,tcp,,Apache-Coyote/1.1,,AR,Santa Fe,Sunchales,"HTTP/1.1 200 OK
Connection: close
Transfer-Encoding: chunked
Cache-Control: no-cache
Content-Type: text/html;charset=UTF-8
Date: Tue, 04 Jun 2024 17:16:58 GMT
Expires: Thu, 01 Jan 1970 00:00:00 GMT
Pragma: no-cache
Server: Apache-Coyote/1.1
Set-Cookie: JSESSIONID=15A635F7AF429ACFABD1F89A78946AC9; Path=/portal/; HttpOnly
",,,,,,http://190.6.97.7,阿根廷
218.93.217.22:8009,218.93.217.22,8009,http,tcp,DSS,Apache-Coyote/1.1,,CN,Jiangsu,Suqian,"HTTP/1.1 200 OK
Connection: close
Content-Length: 7525
Cache-Control: no-cache
Content-Language: zh-CN
Content-Type: text/html;charset=UTF-8
Date: Tue, 04 Jun 2024 17:32:11 GMT
Expires: Thu, 01 Jan 1970 00:00:00 GMT
Pragma: no-cache
Server: Apache-Coyote/1.1
Set-Cookie: JSESSIONID=EF9E668BBA4CC16E083C3F5217958E4B; Path=/portal; HttpOnly
",,,,,,http://218.93.217.22:8009,中国
218.75.150.38,218.75.150.38,80,http,tcp,DSS,Apache-Coyote/1.1,,CN,Hunan,Changde,"HTTP/1.1 200 OK
Connection: close
Content-Length: 7525
Cache-Control: no-cache
Content-Language: zh-CN
Content-Type: text/html;charset=UTF-8
Date: Tue, 04 Jun 2024 14:49:49 GMT
Expires: Thu, 01 Jan 1970 00:00:00 GMT
Pragma: no-cache
Server: Apache-Coyote/1.1
Set-Cookie: JSESSIONID=56B226A381B150776798920F0CF5F65A; Path=/portal; HttpOnly
",,,,,,http://218.75.150.38,中国
95.0.151.252,95.0.151.252,80,http,tcp,,Apache-Coyote/1.1,,TR,Bolu,Bolu,"HTTP/1.1 200 OK
Connection: close
Transfer-Encoding: chunked
Cache-Control: no-cache
Content-Type: text/html;charset=UTF-8
Date: Tue, 04 Jun 2024 12:57:34 GMT
Expires: Thu, 01 Jan 1970 00:00:00 GMT
Pragma: no-cache
Server: Apache-Coyote/1.1
Set-Cookie: JSESSIONID=F75F63C0A23989EAEEB96F5684ACF5E5; Path=/portal/; HttpOnly
",,,,,,http://95.0.151.252,土耳其
213.177.29.188,213.177.29.188,80,http,tcp,,Apache-Coyote/1.1,,RO,Iasi,Iasi,"HTTP/1.1 200 OK
Connection: close
Transfer-Encoding: chunked
Cache-Control: no-cache
Content-Type: text/html;charset=UTF-8
Date: Tue, 04 Jun 2024 13:37:16 GMT
Expires: Thu, 01 Jan 1970 00:00:00 GMT
Pragma: no-cache
Server: Apache-Coyote/1.1
Set-Cookie: JSESSIONID=746D611050DA78BFA3E8EF2415AAEFFE; Path=/portal/; HttpOnly
",,,,,,http://213.177.29.188,罗马尼亚
211.92.142.141:9999,211.92.142.141,9999,http,tcp,DSS,Apache-Coyote/1.1,,CN,Guizhou,Guiyang,"HTTP/1.1 200 OK
Connection: close
Content-Length: 7359
Cache-Control: no-cache
Content-Type: text/html;charset=UTF-8
Date: Tue, 04 Jun 2024 13:20:02 GMT
Expires: Thu, 01 Jan 1970 00:00:00 GMT
Pragma: no-cache
Server: Apache-Coyote/1.1
Set-Cookie: JSESSIONID=EDD650762FA1475489D125FB22B4C37E; Path=/portal/; HttpOnly
",,,,,,http://211.92.142.141:9999,中国
119.40.80.134,119.40.80.134,80,http,tcp,,Apache-Coyote/1.1,,BD,Dhaka,Dhaka,"HTTP/1.1 200 OK
Connection: close
Transfer-Encoding: chunked
Cache-Control: no-cache
Content-Type: text/html;charset=UTF-8
Date: Tue, 04 Jun 2024 12:51:37 GMT
Expires: Thu, 01 Jan 1970 00:00:00 GMT
Pragma: no-cache
Server: Apache-Coyote/1.1
Set-Cookie: JSESSIONID=1B891A67F1F7B98F2E2993028992D14D; Path=/portal/; HttpOnly
",,,,,,http://119.40.80.134,孟加拉国
119.188.182.24,119.188.182.24,80,http,tcp,DSS,Apache-Coyote/1.1,,CN,Shandong,Jinan,"HTTP/1.1 200 OK
Connection: close
Content-Length: 7359
Cache-Control: no-cache
Content-Type: text/html;charset=UTF-8
Date: Tue, 04 Jun 2024 13:36:18 GMT
Expires: Thu, 01 Jan 1970 00:00:00 GMT
Pragma: no-cache
Server: Apache-Coyote/1.1
Set-Cookie: JSESSIONID=4924036521CE605BEDACF867326192C2; Path=/portal/; HttpOnly
",,,,,,http://119.188.182.24,中国
85.111.16.76,85.111.16.76,80,http,tcp,,Apache-Coyote/1.1,,TR,Istanbul,Istanbul,"HTTP/1.1 200 OK
Connection: close
Transfer-Encoding: chunked
Cache-Control: no-cache
Content-Type: text/html;charset=UTF-8
Date: Tue, 04 Jun 2024 12:14:24 GMT
Expires: Thu, 01 Jan 1970 00:00:00 GMT
Pragma: no-cache
Server: Apache-Coyote/1.1
Set-Cookie: JSESSIONID=34214ADD6259DC79A9AE05DAC1663EE7; Path=/portal/; HttpOnly
",,,,,,http://85.111.16.76,土耳其
186.114.199.109,186.114.199.109,80,http,tcp,,Apache-Coyote/1.1,,CO,Distrito Capital de Bogota,Bogota,"HTTP/1.1 200 OK
Connection: close
Transfer-Encoding: chunked
Cache-Control: no-cache
Content-Type: text/html;charset=UTF-8
Date: Tue, 04 Jun 2024 12:28:42 GMT
Expires: Thu, 01 Jan 1970 00:00:00 GMT
Pragma: no-cache
Server: Apache-Coyote/1.1
Set-Cookie: JSESSIONID=7FBEE700332E5DCA4C7C395785887F31; Path=/portal/; HttpOnly
",,,,,,http://186.114.199.109,哥伦比亚
36.112.42.116,36.112.42.116,80,http,tcp,DSS,Apache-Coyote/1.1,,CN,Zhejiang,Hangzhou,"HTTP/1.1 200 OK
Connection: close
Content-Length: 7525
Cache-Control: no-cache
Content-Language: zh-CN
Content-Type: text/html;charset=UTF-8
Date: Tue, 04 Jun 2024 13:17:13 GMT
Expires: Thu, 01 Jan 1970 00:00:00 GMT
Pragma: no-cache
Server: Apache-Coyote/1.1
Set-Cookie: JSESSIONID=4CA75F9E96A0886FE409AD90450884DB; Path=/portal/; HttpOnly
",,,,,,http://36.112.42.116,中国
https://60.170.225.162:7777,60.170.225.162,7777,https,tcp,,nginx,,CN,Anhui,Bengbu,"HTTP/1.1 200 
Connection: close
Content-Length: 148
Content-Type: text/html;charset=UTF-8
Date: Tue, 04 Jun 2024 12:04:38 GMT
Server: nginx
Set-Cookie: JSESSIONID=C1DCD34CB3242D095E95DFB905860F0E; Path=/admin; HttpOnly
X-Frame-Options: SAMEORIGIN
X-Protected-By: OpenRASP
X-Request-Id: 3beee7d1ef4a429792dde4c5905e6387
",,,"Version:  v3
Serial Number: 9986130484677298287
Signature Algorithm: SHA256-RSA

Issuer:
  Country: CN
  Province: ZheJiang
  Locality: Hangzhou
  Organization: ZheJiang Dahua Technology CO.,LTD.
  Organizational Unit: ZheJiang Dahua Technology CO.,LTD.
  CommonName: dahuatech
  Email Address: dahuatech@dahuatech.com

Validity:
  Not Before: 2021-09-08 08:13 UTC
  Not After : 2031-09-06 08:13 UTC

Subject:
  Country: CN
  Province: ZheJiang
  Locality: Hangzhou
  Organization: ZheJiang Dahua Technology CO.,LTD.
  Organizational Unit: ZheJiang Dahua Technology CO.,LTD.
  CommonName: dahuatech
  Email Address: dahuatech@dahuatech.com

Subject Public Key Info:
  Public Key Algorithm: RSA
  Public Key:
    Exponent: 65537
    Public Key Modulus: (2048 bits) :
      B0:E2:C3:F3:B3:A3:42:8E:AC:6A:7D:B6:29:D8:37:B3:
      E4:89:94:C0:C9:C9:A5:7B:77:49:70:56:25:35:AB:F7:
      CD:9B:6F:BE:C6:C4:E7:FE:B2:55:E2:43:1F:C4:68:EB:
      87:0A:FE:10:4A:69:BB:63:07:0F:9A:13:28:F1:C6:FC:
      64:29:5F:96:79:FA:BD:65:DB:86:1D:37:7A:FC:19:6C:
      34:F2:E7:C8:A1:F8:4D:7E:66:C3:49:2B:77:92:78:15:
      E2:37:DD:09:59:92:0D:D2:00:22:8C:48:41:02:AD:E0:
      F6:5F:E0:D5:A4:52:DD:20:04:3F:09:35:B4:F9:AF:45:
      1C:F1:A7:46:47:F0:04:19:90:91:A4:A3:63:41:25:E0:
      85:10:C5:D9:1D:A7:B6:EA:9C:00:D6:7A:C1:9E:97:00:
      53:8C:87:42:9D:C6:CD:7E:8B:34:0F:0A:AD:C5:D4:EB:
      A7:FA:1B:A8:51:0A:0E:6A:4A:B2:B9:DE:9E:72:8B:BD:
      72:10:B1:44:3A:FA:3E:8F:3C:BF:7E:B6:89:7D:3E:69:
      A9:F1:99:25:04:96:A9:DA:85:AC:B1:54:F6:70:B4:BB:
      1E:36:D8:A6:19:A5:A0:5C:AB:7C:2E:65:C9:C7:60:CF:
      73:81:5D:CA:0B:27:2A:F2:20:79:C6:13:38:27:E4:E7

Authority Key Identifier:
  75:93:C4:D4:11:C1:35:B6:34:1A:CC:09:FE:A9:FA:F3:F5:25:50:12

Subject Key Identifier:
  75:93:C4:D4:11:C1:35:B6:34:1A:CC:09:FE:A9:FA:F3:F5:25:50:12

Basic Constraints:
  CA : false
  Path Length Constraint: UNLIMITED

IP Addresses:
  60.170.225.162
  192.168.20.9

Certificate Signature Algorithm: SHA256-RSA
Certificate Signature:
  4D:CE:30:DF:37:4A:A4:BD:4E:CC:BC:C4:88:0A:36:FD:
  DB:75:B9:9B:56:F1:95:2D:AF:44:1D:C2:36:54:D3:C5:
  81:CC:6C:7B:21:11:81:52:31:AE:29:5C:80:DE:45:8C:
  F8:37:64:58:85:B8:E9:1B:EB:7B:1C:A8:CD:A7:7E:4C:
  E9:94:4F:AD:39:47:99:50:51:64:B3:69:C1:2C:84:4D:
  5B:06:DD:DE:E0:BA:74:7E:D3:66:75:17:6A:AB:6A:09:
  FE:A1:25:28:5F:6A:C1:79:BF:33:29:61:61:E6:A0:49:
  F0:BE:97:49:A5:BD:C2:A5:CB:E4:AC:83:C3:A7:23:18:
  1A:F5:8B:25:28:57:13:85:B5:F2:2A:E4:4F:CE:9F:3B:
  CC:8C:15:A8:E7:6B:72:92:C1:81:59:69:8C:55:40:76:
  35:68:45:51:66:61:A0:55:ED:54:47:1F:59:E4:8F:D5:
  D3:A5:55:A2:F0:D3:AB:8E:6B:F0:FF:62:69:F7:76:3A:
  D1:E4:BD:20:F7:7E:22:1A:FE:3C:76:A0:7E:2E:26:D3:
  28:CE:DF:0B:66:B4:BA:61:5D:13:F7:AD:1D:06:13:CB:
  A0:4E:88:CD:09:3B:D5:D8:59:06:42:6E:C4:4E:C8:89:
  2C:D3:86:C3:10:DD:FE:33:A0:A2:D2:8C:82:36:5C:EB",,2ad2ad0002ad2ad0002ad2ad2ad2ade1a3c0d7ca6ad8388057924be83dfc6a,https://60.170.225.162:7777,中国
122.141.177.170:8009,122.141.177.170,8009,http,tcp,DSS,Apache-Coyote/1.1,,CN,Jilin,Tonghua,"HTTP/1.1 200 OK
Connection: close
Content-Length: 7359
Cache-Control: no-cache
Content-Type: text/html;charset=UTF-8
Date: Tue, 04 Jun 2024 12:14:37 GMT
Expires: Thu, 01 Jan 1970 00:00:00 GMT
Pragma: no-cache
Server: Apache-Coyote/1.1
Set-Cookie: JSESSIONID=95702BC948E54BEDA093014ADD1FC8F0; Path=/portal/; HttpOnly
",,,,,,http://122.141.177.170:8009,中国
39.129.152.126:8000,39.129.152.126,8000,http,tcp,DSS,Apache-Coyote/1.1,,CN,Yunnan,Wenshan,"HTTP/1.1 200 OK
Connection: close
Content-Length: 7525
Cache-Control: no-cache
Content-Language: zh-CN
Content-Type: text/html;charset=UTF-8
Date: Tue, 04 Jun 2024 10:39:52 GMT
Expires: Thu, 01 Jan 1970 00:00:00 GMT
Pragma: no-cache
Server: Apache-Coyote/1.1
Set-Cookie: JSESSIONID=5924621F6E0E958A0C9C9AFC4430FF02; Path=/portal; HttpOnly
",,,,,,http://39.129.152.126:8000,中国
197.248.146.129:8020,197.248.146.129,8020,http,tcp,,Apache-Coyote/1.1,,KE,Kisumu,Kisumu,"HTTP/1.1 200 OK
Connection: close
Transfer-Encoding: chunked
Cache-Control: no-cache
Content-Type: text/html;charset=UTF-8
Date: Tue, 04 Jun 2024 11:04:16 GMT
Expires: Thu, 01 Jan 1970 00:00:00 GMT
Pragma: no-cache
Server: Apache-Coyote/1.1
Set-Cookie: JSESSIONID=478D6E418007E75131A1FE736D518B0B; Path=/portal/; HttpOnly
",,,,,,http://197.248.146.129:8020,肯尼亚
112.64.179.130:8000,112.64.179.130,8000,http,tcp,DSS,Apache-Coyote/1.1,,CN,Shanghai,Shanghai,"HTTP/1.1 200 OK
Connection: close
Content-Length: 7359
Cache-Control: no-cache
Content-Type: text/html;charset=UTF-8
Date: Tue, 04 Jun 2024 11:42:28 GMT
Expires: Thu, 01 Jan 1970 00:00:00 GMT
Pragma: no-cache
Server: Apache-Coyote/1.1
Set-Cookie: JSESSIONID=3CE779C5F9F1E801700973BA54159691; Path=/portal; HttpOnly
",,,,,,http://112.64.179.130:8000,中国
80.92.254.3,80.92.254.3,80,http,tcp,,Apache-Coyote/1.1,,CZ,"Praha, Hlavni mesto",Prague,"HTTP/1.1 200 OK
Connection: close
Transfer-Encoding: chunked
Cache-Control: no-cache
Content-Type: text/html;charset=UTF-8
Date: Tue, 04 Jun 2024 10:21:50 GMT
Expires: Thu, 01 Jan 1970 00:00:00 GMT
Pragma: no-cache
Server: Apache-Coyote/1.1
Set-Cookie: JSESSIONID=B9C4AB76D993CDB9C5C1FC5A746FEFCC; Path=/portal/; HttpOnly
",,,,,,http://80.92.254.3,捷克
175.141.245.99,175.141.245.99,80,http,tcp,,Apache-Coyote/1.1,,MY,Selangor,Shah Alam,"HTTP/1.1 200 OK
Connection: close
Transfer-Encoding: chunked
Cache-Control: no-cache
Content-Type: text/html;charset=UTF-8
Date: Tue, 04 Jun 2024 10:31:43 GMT
Expires: Thu, 01 Jan 1970 00:00:00 GMT
Pragma: no-cache
Server: Apache-Coyote/1.1
Set-Cookie: JSESSIONID=D667B5C17E5CC3E40568FEBD2CED5F51; Path=/portal/; HttpOnly
",,,,,,http://175.141.245.99,马来西亚
181.31.122.61:8009,181.31.122.61,8009,http,tcp,,Apache-Coyote/1.1,,AR,Cordoba,Cordoba,"HTTP/1.1 200 OK
Connection: close
Transfer-Encoding: chunked
Cache-Control: no-cache
Content-Type: text/html;charset=UTF-8
Date: Tue, 04 Jun 2024 09:45:38 GMT
Expires: Thu, 01 Jan 1970 00:00:00 GMT
Pragma: no-cache
Server: Apache-Coyote/1.1
Set-Cookie: JSESSIONID=27D8C96AD90A3DA1302C8CA7ED1C715E; Path=/portal/; HttpOnly
",,,,,,http://181.31.122.61:8009,阿根廷
120.224.132.195:8000,120.224.132.195,8000,http,tcp,DSS,Apache-Coyote/1.1,,CN,Shandong,Weifang,"HTTP/1.1 200 OK
Connection: close
Content-Length: 7359
Cache-Control: no-cache
Content-Type: text/html;charset=UTF-8
Date: Tue, 04 Jun 2024 09:26:28 GMT
Expires: Thu, 01 Jan 1970 00:00:00 GMT
Pragma: no-cache
Server: Apache-Coyote/1.1
Set-Cookie: JSESSIONID=E5E62DDF184E04467CD2DCA7B647055A; Path=/portal; HttpOnly
",,,,,,http://120.224.132.195:8000,中国
124.239.135.35:8008,124.239.135.35,8008,http,tcp,DSS,Apache-Coyote/1.1,,CN,Hebei,Tangshan,"HTTP/1.1 200 OK
Connection: close
Content-Length: 7359
Cache-Control: no-cache
Content-Type: text/html;charset=UTF-8
Date: Tue, 04 Jun 2024 08:05:45 GMT
Expires: Thu, 01 Jan 1970 00:00:00 GMT
Pragma: no-cache
Server: Apache-Coyote/1.1
Set-Cookie: JSESSIONID=923612744055E758267F4B426C0D7399; Path=/portal; HttpOnly
",,,,,,http://124.239.135.35:8008,中国
112.64.201.26:8000,112.64.201.26,8000,http,tcp,DSS,Apache-Coyote/1.1,,CN,Shanghai,Shanghai,"HTTP/1.1 200 OK
Connection: close
Content-Length: 7359
Cache-Control: no-cache
Content-Type: text/html;charset=UTF-8
Date: Tue, 04 Jun 2024 08:11:44 GMT
Expires: Thu, 01 Jan 1970 00:00:00 GMT
Pragma: no-cache
Server: Apache-Coyote/1.1
Set-Cookie: JSESSIONID=FD580D93972767C5CF539DCB0542F870; Path=/portal; HttpOnly
",,,,,,http://112.64.201.26:8000,中国
116.10.127.53:8000,116.10.127.53,8000,http,tcp,DSS,Apache-Coyote/1.1,,CN,Guangxi Zhuangzu,Nanning,"HTTP/1.1 200 OK
Connection: close
Content-Length: 7525
Cache-Control: no-cache
Content-Language: zh-CN
Content-Type: text/html;charset=UTF-8
Date: Tue, 04 Jun 2024 07:25:37 GMT
Expires: Thu, 01 Jan 1970 00:00:00 GMT
Pragma: no-cache
Server: Apache-Coyote/1.1
Set-Cookie: JSESSIONID=0176177A44798352E36CB7634009ADB1; Path=/portal; HttpOnly
",,,,,,http://116.10.127.53:8000,中国
218.56.1.34:8081,218.56.1.34,8081,http,tcp,DSS,Apache-Coyote/1.1,,CN,Shandong,Jinan,"HTTP/1.1 200 OK
Connection: close
Content-Length: 7359
Cache-Control: no-cache
Content-Type: text/html;charset=UTF-8
Date: Tue, 04 Jun 2024 07:08:38 GMT
Expires: Thu, 01 Jan 1970 00:00:00 GMT
Pragma: no-cache
Server: Apache-Coyote/1.1
Set-Cookie: JSESSIONID=9BB1FB71346DD1459DAD606B749E0762; Path=/portal; HttpOnly
",,,,,,http://218.56.1.34:8081,中国
219.131.130.139:8009,219.131.130.139,8009,http,tcp,DSS,Apache-Coyote/1.1,,CN,Guangdong,Chaozhou,"HTTP/1.1 200 OK
Connection: close
Content-Length: 7359
Cache-Control: no-cache
Content-Type: text/html;charset=UTF-8
Date: Tue, 04 Jun 2024 05:56:27 GMT
Expires: Thu, 01 Jan 1970 00:00:00 GMT
Pragma: no-cache
Server: Apache-Coyote/1.1
Set-Cookie: JSESSIONID=56DFF11B6DCACECCD37B7EF625119310; Path=/portal; HttpOnly
",,,,,,http://219.131.130.139:8009,中国
https://187.189.191.50,187.189.191.50,443,https,tcp,,Apache-Coyote/1.1,,MX,Jalisco,Guadalajara,"HTTP/1.1 200 OK
Connection: close
Transfer-Encoding: chunked
Cache-Control: no-cache
Content-Type: text/html;charset=UTF-8
Date: Tue, 04 Jun 2024 05:23:45 GMT
Expires: Thu, 01 Jan 1970 00:00:00 GMT
Pragma: no-cache
Server: Apache-Coyote/1.1
Set-Cookie: JSESSIONID=3364E3CD33A9BF4ED1CB4A0333AB026A; Path=/portal/; HttpOnly
",,,,,06b06b00006b06b06b06b06b06b06be3b0c44298fc1c149afbf4c8996fb924,https://187.189.191.50,墨西哥
212.156.130.218:8000,212.156.130.218,8000,http,tcp,,Apache-Coyote/1.1,,TR,Edirne,Kesan,"HTTP/1.1 200 OK
Connection: close
Transfer-Encoding: chunked
Cache-Control: no-cache
Content-Type: text/html;charset=UTF-8
Date: Tue, 04 Jun 2024 04:57:37 GMT
Expires: Thu, 01 Jan 1970 00:00:00 GMT
Pragma: no-cache
Server: Apache-Coyote/1.1
Set-Cookie: JSESSIONID=D324B06B0645F2B4F7A674E67856A87F; Path=/portal/; HttpOnly
",,,,,,http://212.156.130.218:8000,土耳其
221.2.73.198:8081,221.2.73.198,8081,http,tcp,DSS,Apache-Coyote/1.1,,CN,Shandong,Jinan,"HTTP/1.1 200 OK
Connection: close
Content-Length: 7359
Cache-Control: no-cache
Content-Type: text/html;charset=UTF-8
Date: Tue, 04 Jun 2024 04:48:58 GMT
Expires: Thu, 01 Jan 1970 00:00:00 GMT
Pragma: no-cache
Server: Apache-Coyote/1.1
Set-Cookie: JSESSIONID=81B94C9F7BBE7EBE4588FFAA970DAD67; Path=/portal/; HttpOnly
",,,,,,http://221.2.73.198:8081,中国
222.88.148.135:8181,222.88.148.135,8181,http,tcp,DSS,Apache-Coyote/1.1,,CN,Henan,Anyang,"HTTP/1.1 200 OK
Connection: close
Content-Length: 7359
Cache-Control: no-cache
Content-Type: text/html;charset=UTF-8
Date: Tue, 04 Jun 2024 04:40:30 GMT
Expires: Thu, 01 Jan 1970 00:00:00 GMT
Pragma: no-cache
Server: Apache-Coyote/1.1
Set-Cookie: JSESSIONID=22C821BABC18C616F05BB52E94843987; Path=/portal; HttpOnly
",,,,,,http://222.88.148.135:8181,中国
https://27.100.45.213,27.100.45.213,443,https,tcp,,Apache-Coyote/1.1,,TH,Krung Thep Maha Nakhon,Bangkok,"HTTP/1.1 200 OK
Connection: close
Transfer-Encoding: chunked
Cache-Control: no-cache
Content-Type: text/html;charset=UTF-8
Date: Tue, 04 Jun 2024 04:22:27 GMT
Expires: Thu, 01 Jan 1970 00:00:00 GMT
Pragma: no-cache
Server: Apache-Coyote/1.1
Set-Cookie: JSESSIONID=499958D9E6295244271B9B3B943EB0A2; Path=/portal/; HttpOnly
",,,,,06b06b00006b06b06b06b06b06b06be3b0c44298fc1c149afbf4c8996fb924,https://27.100.45.213,泰国
